[
    {
        "Altitude(m)": 607911.0217855569,
        "Argument of Periapsis(deg)": 0.0,
        "Eccentricity": 0.0,
        "Inclination(deg)": 60.0,
        "Latitude(deg)": -14.293016102006415,
        "Longitude(deg)": -121.55736443599926,
        "Mean Anomaly(deg)": 196.36360000000002,
        "RAAN(deg)": 150.0,
        "Satellite Name": "Test1 672",
        "Satellite Number": 672,
        "Semi-Major Axis(m)": 6980739.136638005,
        "Time(s)": 0
    },
    {
        "Altitude(m)": 608060.2558571667,
        "Argument of Periapsis(deg)": 0.00010418945913296404,
        "Eccentricity": 0.0,
        "Inclination(deg)": 60.0,
        "Latitude(deg)": -14.826677738138544,
        "Longitude(deg)": -121.2687553676197,
        "Mean Anomaly(deg)": 196.9837061454618,
        "RAAN(deg)": 149.99957995086027,
        "Satellite Name": "Test1 672",
        "Satellite Number": 672,
        "Semi-Major Axis(m)": 6980739.136638005,
        "Time(s)": 10
    }
]